start=new Date('%Y-%m-57T00:00:00.000Z').valueOf();
sats=[{"NORAD_CAT_ID":"47887","INCLINATION":"53.0561","ELEMENT_SET_NO":"999","MEAN_MOTION_DOT":"-0.00004608","RCS_SIZE":"LARGE","REV_AT_EPOCH":"2562","LAUNCH_DATE":"2021-03-14","DECAY_DATE":null,"MEAN_ELEMENT_THEORY":"SGP4","BSTAR":"-0.00029064000000","OBJECT_NAME":"STARLINK-2346","ARG_OF_PERICENTER":"64.7952","PERIAPSIS":"546.193","FILE":"3100831","APOAPSIS":"548.204","OBJECT_ID":"2021-021AD","EPHEMERIS_TYPE":"0","TLE_LINE2":"2 47887  53.0561 180.4276 0001452  64.7952 295.3188 15.06404895 25622","MEAN_ANOMALY":"295.3188","MEAN_MOTION_DDOT":"0.0000000000000","OBJECT_TYPE":"PAYLOAD","SITE":"AFETR","EPOCH":"2021-08-21T04:13:35.550624","TLE_LINE1":"1 47887U 21021AD  21233.17610591 -.00004608  00000-0 -29064-3 0  9995","COUNTRY_CODE":"US","CLASSIFICATION_TYPE":"U","ECCENTRICITY":"0.00014520","CENTER_NAME":"EARTH","TIME_SYSTEM":"UTC","MEAN_MOTION":"15.06404895","GP_ID":"183186324","PERIOD":"95.592","RA_OF_ASC_NODE":"180.4276","SEMIMAJOR_AXIS":"6925.334","REF_FRAME":"TEME"},{"REF_FRAME":"TEME","SEMIMAJOR_AXIS":"6925.376","RA_OF_ASC_NODE":"168.8362","PERIOD":"95.593","GP_ID":"183186576","TIME_SYSTEM":"UTC","MEAN_MOTION":"15.06391112","ECCENTRICITY":"0.00021450","CENTER_NAME":"EARTH","CLASSIFICATION_TYPE":"U","COUNTRY_CODE":"US","EPOCH":"2021-08-21T12:44:29.787648","TLE_LINE1":"1 47888U 21021AE  21233.53090032 -.00000980  00000-0 -46859-4 0  9999","SITE":"AFETR","OBJECT_TYPE":"PAYLOAD","MEAN_MOTION_DDOT":"0.0000000000000","MEAN_ANOMALY":"288.4139","TLE_LINE2":"2 47888  53.0554 168.8362 0002145  71.7083 288.4139 15.06391112 25822","EPHEMERIS_TYPE":"0","OBJECT_ID":"2021-021AE","APOAPSIS":"548.726","FILE":"3100831","PERIAPSIS":"545.755","ARG_OF_PERICENTER":"71.7083","OBJECT_NAME":"STARLINK-2348","BSTAR":"-0.00004685900000","MEAN_ELEMENT_THEORY":"SGP4","DECAY_DATE":null,"LAUNCH_DATE":"2021-03-14","REV_AT_EPOCH":"2582","MEAN_MOTION_DOT":"-0.00000980","RCS_SIZE":"LARGE","ELEMENT_SET_NO":"999","INCLINATION":"53.0554","NORAD_CAT_ID":"47888"},{"REV_AT_EPOCH":"2587","MEAN_MOTION_DOT":"0.00000854","RCS_SIZE":"LARGE","NORAD_CAT_ID":"47889","INCLINATION":"53.0560","ELEMENT_SET_NO":"999","ARG_OF_PERICENTER":"66.7345","MEAN_ELEMENT_THEORY":"SGP4","OBJECT_NAME":"STARLINK-2349","BSTAR":"0.00007623500000","DECAY_DATE":null,"LAUNCH_DATE":"2021-03-14","EPOCH":"2021-08-21T13:00:25.248096","TLE_LINE1":"1 47889U 21021AF  21233.54195889  .00000854  00000-0  76235-4 0  9996","COUNTRY_CODE":"US","MEAN_MOTION_DDOT":"0.0000000000000","OBJECT_TYPE":"PAYLOAD","SITE":"AFETR","EPHEMERIS_TYPE":"0","TLE_LINE2":"2 47889  53.0560 168.7874 0001941  66.7345 293.3848 15.06390400 25871","MEAN_ANOMALY":"293.3848","PERIAPSIS":"545.899","APOAPSIS":"548.587","FILE":"3100831","OBJECT_ID":"2021-021AF","SEMIMAJOR_AXIS":"6925.378","REF_FRAME":"TEME","RA_OF_ASC_NODE":"168.7874","PERIOD":"95.593","GP_ID":"183187326","CLASSIFICATION_TYPE":"U","CENTER_NAME":"EARTH","ECCENTRICITY":"0.00019410","MEAN_MOTION":"15.06390400","TIME_SYSTEM":"UTC"},{"BSTAR":"0.00007308400000","OBJECT_NAME":"STARLINK-2350","MEAN_ELEMENT_THEORY":"SGP4","ARG_OF_PERICENTER":"59.0603","LAUNCH_DATE":"2021-03-14","DECAY_DATE":null,"REV_AT_EPOCH":"2469","ELEMENT_SET_NO":"999","NORAD_CAT_ID":"47890","INCLINATION":"53.0558","RCS_SIZE":"LARGE","MEAN_MOTION_DOT":"0.00000807","PERIOD":"95.592","RA_OF_ASC_NODE":"179.8800","SEMIMAJOR_AXIS":"6925.327","REF_FRAME":"TEME","CENTER_NAME":"EARTH","ECCENTRICITY":"0.00017940","MEAN_MOTION":"15.06407136","TIME_SYSTEM":"UTC","CLASSIFICATION_TYPE":"U","GP_ID":"183186074","OBJECT_TYPE":"PAYLOAD","SITE":"AFETR","MEAN_MOTION_DDOT":"0.0000000000000","COUNTRY_CODE":"US","TLE_LINE1":"1 47890U 21021AG  21233.29776515  .00000807  00000-0  73084-4 0  9998","EPOCH":"2021-08-21T07:08:46.908960","FILE":"3100831","APOAPSIS":"548.434","OBJECT_ID":"2021-021AG","PERIAPSIS":"545.949","MEAN_ANOMALY":"301.0563","EPHEMERIS_TYPE":"0","TLE_LINE2":"2 47890  53.0558 179.8800 0001794  59.0603 301.0563 15.06407136 24695"},{"EPHEMERIS_TYPE":"0","TLE_LINE2":"2 47891  53.0542 179.9480 0001574  66.3850 293.7305 15.06399801 25809","MEAN_ANOMALY":"293.7305","PERIAPSIS":"546.124","FILE":"3100831","APOAPSIS":"548.304","OBJECT_ID":"2021-021AH","EPOCH":"2021-08-21T06:47:32.577216","TLE_LINE1":"1 47891U 21021AH  21233.28301594 -.00001109  00000-0 -55535-4 0  9998","COUNTRY_CODE":"US","MEAN_MOTION_DDOT":"0.0000000000000","OBJECT_TYPE":"PAYLOAD","SITE":"AFETR","GP_ID":"183185825","CLASSIFICATION_TYPE":"U","ECCENTRICITY":"0.00015740","CENTER_NAME":"EARTH","TIME_SYSTEM":"UTC","MEAN_MOTION":"15.06399801","SEMIMAJOR_AXIS":"6925.349","REF_FRAME":"TEME","RA_OF_ASC_NODE":"179.9480","PERIOD":"95.592","RCS_SIZE":"LARGE","MEAN_MOTION_DOT":"-0.00001109","NORAD_CAT_ID":"47891","INCLINATION":"53.0542","ELEMENT_SET_NO":"999","REV_AT_EPOCH":"2580","DECAY_DATE":null,"LAUNCH_DATE":"2021-03-14","ARG_OF_PERICENTER":"66.3850","MEAN_ELEMENT_THEORY":"SGP4","OBJECT_NAME":"STARLINK-2351","BSTAR":"-0.00005553500000"},{"REV_AT_EPOCH":"2565","ELEMENT_SET_NO":"999","NORAD_CAT_ID":"47892","INCLINATION":"53.0554","RCS_SIZE":"LARGE","MEAN_MOTION_DOT":"0.00000832","BSTAR":"0.00007478100000","OBJECT_NAME":"STARLINK-2352","MEAN_ELEMENT_THEORY":"SGP4","ARG_OF_PERICENTER":"61.9623","LAUNCH_DATE":"2021-03-14","DECAY_DATE":null,"SITE":"AFETR","OBJECT_TYPE":"PAYLOAD","MEAN_MOTION_DDOT":"0.0000000000000","COUNTRY_CODE":"US","EPOCH":"2021-08-21T08:49:37.451712","TLE_LINE1":"1 47892U 21021AJ  21233.36779458  .00000832  00000-0  74781-4 0  9990","FILE":"3100831","APOAPSIS":"548.479","OBJECT_ID":"2021-021AJ","PERIAPSIS":"545.962","MEAN_ANOMALY":"298.1549","EPHEMERIS_TYPE":"0","TLE_LINE2":"2 47892  53.0554 179.5670 0001817  61.9623 298.1549 15.06397831 25652","RA_OF_ASC_NODE":"179.5670","PERIOD":"95.592","SEMIMAJOR_AXIS":"6925.355","REF_FRAME":"TEME","ECCENTRICITY":"0.00018170","CENTER_NAME":"EARTH","MEAN_MOTION":"15.06397831","TIME_SYSTEM":"UTC","CLASSIFICATION_TYPE":"U","GP_ID":"183187076"},{"PERIOD":"95.592","RA_OF_ASC_NODE":"170.1429","REF_FRAME":"TEME","SEMIMAJOR_AXIS":"6925.339","MEAN_MOTION":"15.06403128","TIME_SYSTEM":"UTC","CENTER_NAME":"EARTH","ECCENTRICITY":"0.00019630","CLASSIFICATION_TYPE":"U","GP_ID":"183186827","OBJECT_TYPE":"PAYLOAD","SITE":"AFETR","MEAN_MOTION_DDOT":"0.0000000000000","COUNTRY_CODE":"US","TLE_LINE1":"1 47894U 21021AL  21233.23970636  .00000971  00000-0  84108-4 0  9997","EPOCH":"2021-08-21T05:45:10.629504","OBJECT_ID":"2021-021AL","FILE":"3100831","APOAPSIS":"548.563","PERIAPSIS":"545.845","MEAN_ANOMALY":"289.1022","TLE_LINE2":"2 47894  53.0561 170.1429 0001963  71.0180 289.1022 15.06403128 25724","EPHEMERIS_TYPE":"0","OBJECT_NAME":"STARLINK-2354","BSTAR":"0.00008410800000","MEAN_ELEMENT_THEORY":"SGP4","ARG_OF_PERICENTER":"71.0180","LAUNCH_DATE":"2021-03-14","DECAY_DATE":null,"REV_AT_EPOCH":"2572","ELEMENT_SET_NO":"999","INCLINATION":"53.0561","NORAD_CAT_ID":"47894","RCS_SIZE":"LARGE","MEAN_MOTION_DOT":"0.00000971"},{"NORAD_CAT_ID":"47895","INCLINATION":"53.0559","ELEMENT_SET_NO":"999","MEAN_MOTION_DOT":"-0.00001103","RCS_SIZE":"LARGE","REV_AT_EPOCH":"2575","LAUNCH_DATE":"2021-03-14","DECAY_DATE":null,"MEAN_ELEMENT_THEORY":"SGP4","BSTAR":"-0.00005518000000","OBJECT_NAME":"STARLINK-2355","ARG_OF_PERICENTER":"68.7923","PERIAPSIS":"545.859","FILE":"3100831","APOAPSIS":"548.617","OBJECT_ID":"2021-021AM","EPHEMERIS_TYPE":"0","TLE_LINE2":"2 47895  53.0559 170.0931 0001991  68.7923 291.3278 15.06391958 25756","MEAN_ANOMALY":"291.3278","MEAN_MOTION_DDOT":"0.0000000000000","OBJECT_TYPE":"PAYLOAD","SITE":"AFETR","TLE_LINE1":"1 47895U 21021AM  21233.25076911 -.00001103  00000-0 -55180-4 0  9991","EPOCH":"2021-08-21T06:01:06.451104","COUNTRY_CODE":"US","CLASSIFICATION_TYPE":"U","CENTER_NAME":"EARTH","ECCENTRICITY":"0.00019910","TIME_SYSTEM":"UTC","MEAN_MOTION":"15.06391958","GP_ID":"183185575","RA_OF_ASC_NODE":"170.0931","PERIOD":"95.593","SEMIMAJOR_AXIS":"6925.373","REF_FRAME":"TEME"},{"RCS_SIZE":"LARGE","MEAN_MOTION_DOT":"0.00000577","INCLINATION":"53.0534","NORAD_CAT_ID":"47896","ELEMENT_SET_NO":"999","REV_AT_EPOCH":"2551","DECAY_DATE":null,"LAUNCH_DATE":"2021-03-14","ARG_OF_PERICENTER":"92.7376","MEAN_ELEMENT_THEORY":"SGP4","OBJECT_NAME":"STARLINK-2356","BSTAR":"0.00005760100000","TLE_LINE2":"2 47896  53.0534 185.0919 0001527  92.7376 267.3788 15.06403521 25519","EPHEMERIS_TYPE":"0","MEAN_ANOMALY":"267.3788","PERIAPSIS":"546.145","OBJECT_ID":"2021-021AN","FILE":"3100831","APOAPSIS":"548.260","TLE_LINE1":"1 47896U 21021AN  21233.24387081  .00000577  00000-0  57601-4 0  9996","EPOCH":"2021-08-21T05:51:10.437984","COUNTRY_CODE":"US","MEAN_MOTION_DDOT":"0.0000000000000","OBJECT_TYPE":"PAYLOAD","SITE":"AFETR","GP_ID":"183186325","CLASSIFICATION_TYPE":"U","TIME_SYSTEM":"UTC","MEAN_MOTION":"15.06403521","ECCENTRICITY":"0.00015270","CENTER_NAME":"EARTH","REF_FRAME":"TEME","SEMIMAJOR_AXIS":"6925.338","RA_OF_ASC_NODE":"185.0919","PERIOD":"95.592"},{"MEAN_ANOMALY":"291.2760","EPHEMERIS_TYPE":"0","TLE_LINE2":"2 47897  53.0560 168.9190 0001654  68.8406 291.2760 15.06405367 25829","APOAPSIS":"548.343","FILE":"3100831","OBJECT_ID":"2021-021AP","PERIAPSIS":"546.052","COUNTRY_CODE":"US","TLE_LINE1":"1 47897U 21021AP  21233.51245431 -.00000187  00000-0  63718-5 0  9994","EPOCH":"2021-08-21T12:17:56.052384","OBJECT_TYPE":"PAYLOAD","SITE":"AFETR","MEAN_MOTION_DDOT":"0.0000000000000","GP_ID":"183186577","ECCENTRICITY":"0.00016540","CENTER_NAME":"EARTH","TIME_SYSTEM":"UTC","MEAN_MOTION":"15.06405367","CLASSIFICATION_TYPE":"U","SEMIMAJOR_AXIS":"6925.332","REF_FRAME":"TEME","PERIOD":"95.592","RA_OF_ASC_NODE":"168.9190","MEAN_MOTION_DOT":"-0.00000187","RCS_SIZE":"LARGE","ELEMENT_SET_NO":"999","NORAD_CAT_ID":"47897","INCLINATION":"53.0560","REV_AT_EPOCH":"2582","DECAY_DATE":null,"LAUNCH_DATE":"2021-03-14","ARG_OF_PERICENTER":"68.8406","BSTAR":"0.00000637180000","OBJECT_NAME":"STARLINK-2357","MEAN_ELEMENT_THEORY":"SGP4"}];
